[{"OBJECT_NAME":"OBJECT A","OBJECT_ID":"2025-013A","EPOCH":"2026-03-09T23:29:31.895232","MEAN_MOTION":15.29260221,"ECCENTRICITY":0.0010321,"INCLINATION":97.6364,"RA_OF_ASC_NODE":244.5149,"ARG_OF_PERICENTER":282.3775,"MEAN_ANOMALY":77.6309,"EPHEMERIS_TYPE":0,"CLASSIFICATION_TYPE":"U","NORAD_CAT_ID":62729,"ELEMENT_SET_NO":999,"REV_AT_EPOCH":6276,"BSTAR":0.0013206527,"MEAN_MOTION_DOT":0.00037616,"MEAN_MOTION_DDOT":0},{"OBJECT_NAME":"STARLINK-35810","OBJECT_ID":"2025-268U","EPOCH":"2026-03-09T03:18:54.821664","MEAN_MOTION":15.2757036,"ECCENTRICITY":0.00014395,"INCLINATION":43.0021,"RA_OF_ASC_NODE":350.3294,"ARG_OF_PERICENTER":248.8462,"MEAN_ANOMALY":111.2236,"EPHEMERIS_TYPE":0,"CLASSIFICATION_TYPE":"U","NORAD_CAT_ID":66575,"ELEMENT_SET_NO":999,"REV_AT_EPOCH":1787,"BSTAR":0.0015059189,"MEAN_MOTION_DOT":0.00041398,"MEAN_MOTION_DDOT":0}]
